satname,norad_id,inclination_deg,eccentricity,mean_motion_rev_per_day,perigee_km,apogee_km,l1,l2
STARLINK-1169,45061,53.0563,0.0001624,15.06414207,546.04334633709,548.2926854062462,1 45061U 20006T   25265.44365346  .00001716  00000+0  13400-3 0  9994,2 45061  53.0563 321.9078 0001624  97.1864 262.9309 15.06414207311105
STARLINK-1171,45062,53.0546,0.0001348,15.0639451,546.2948447949047,548.1619233024448,1 45062U 20006U   25266.15873618  .00001993  00000+0  15268-3 0  9991,2 45062  53.0546 318.6935 0001348  97.6263 262.4880 15.06394510311218
STARLINK-1133,45064,53.0551,0.0001422,15.06399717,546.2276406043775,548.1972099809309,1 45064U 20006W   25266.10529324  .00003390  00000+0  24636-3 0  9992,2 45064  53.0551 298.9324 0001422  82.4872 277.6279 15.06399717311482
STARLINK-1150,45067,53.0401,0.0001077,15.98565448,277.6811980266275,279.11501568864605,1 45067U 20006Z   25266.33336806  .00533956  13324-3  11098-2 0  9991,2 45067  53.0401 242.1813 0001077  73.7569  91.3397 15.98565448  6036
STARLINK-1167,45071,53.0552,0.00014,15.06391309,546.2686422023462,548.2077472568717,1 45071U 20006AD  25266.13109913  .00000857  00000+0  76448-4 0  9995,2 45071  53.0552 298.8216 0001400  92.9995 267.1154 15.06391309311483
STARLINK-1168,45072,53.0544,0.0001253,15.06397737,546.350746672666,548.0862407593913,1 45072U 20006AE  25265.80304050 -.00000816  00000+0 -35922-4 0  9997,2 45072  53.0544 300.2926 0001253  81.7518 278.3613 15.06397737311434
STARLINK-1172,45074,53.0554,0.0001438,15.06401976,546.2096375377369,548.2013660412522,1 45074U 20006AG  25265.81409629  .00000488  00000+0  51639-4 0  9994,2 45074  53.0554 300.2445 0001438  88.7420 271.3734 15.06401976311435
STARLINK-1153,45080,53.0548,0.0001704,15.06406256,546.0123081385846,548.3724603927421,1 45080U 20006AN  25266.12371354  .00000977  00000+0  84491-4 0  9994,2 45080  53.0548 298.8552 0001704  88.2441 271.8744 15.06406256311487
STARLINK-1151,45081,53.0553,0.0001338,15.06394573,546.3015770990314,548.154804824133,1 45081U 20006AP  25266.10898666  .00001118  00000+0  93962-4 0  9994,2 45081  53.0553 298.9916 0001338  95.8533 264.2608 15.06394573311481
STARLINK-1190,45083,53.0486,0.0008477,15.73735748,342.52922323468283,353.93310782251956,1 45083U 20006AR  25266.28412617  .00159268  00000+0  10904-2 0  9996,2 45083  53.0486 269.4199 0008477  40.6891 319.4759 15.73735748311915
STARLINK-1173,45084,53.0441,0.0008694,15.83464068,314.8291150043833,326.47697113127015,1 45084U 20006AS  25266.33336806  .00351551  00000+0  15155-2 0  9990,2 45084  53.0441 232.9580 0008694  28.4193 188.1363 15.83464068  5946
STARLINK-1179,45085,53.0381,0.0002358,15.96789143,281.763005826082,284.90455544623,1 45085U 20006AT  25266.33336806  .00999446  47436-3  22971-2 0  9994,2 45085  53.0381 223.3655 0002358  61.4991 216.8634 15.96789143  5972
STARLINK-1185,45087,53.0549,0.0001283,15.06391205,546.3499877993345,548.1270391560929,1 45087U 20006AV  25266.21771230  .00000282  00000+0  37824-4 0  9995,2 45087  53.0549 278.4288 0001283  93.2443 266.8693 15.06391205311782
STARLINK-1183,45088,53.0536,0.0001288,15.06400642,546.3176056606117,548.1015749422731,1 45088U 20006AW  25266.04077951  .00000991  00000+0  85402-4 0  9998,2 45088  53.0536 279.2246 0001288  71.1936 288.9193 15.06400642311752
STARLINK-1176,45090,53.0476,0.0004247,15.80974928,324.83443778082164,330.53036077856905,1 45090U 20006AY  25266.25003472  .00335566  00000+0  16302-2 0  9991,2 45090  53.0476 231.1383 0004247  16.8352 223.8589 15.80974928  5935
STARLINK-1142,45093,53.0384,0.0006002,15.50570507,410.9819849446267,419.13653773674014,1 45093U 20006BB  25266.10482525  .00130024  00000+0  22054-2 0  9991,2 45093  53.0384 225.7110 0006002  70.6166 289.5490 15.50570507312512
STARLINK-1146,45094,53.0441,0.0002385,15.98270654,277.6288153019532,280.8043729663559,1 45094U 20006BC  25266.25003472  .00548222  13968-3  11581-2 0  9995,2 45094  53.0441 224.8422 0002385  38.3767 103.5953 15.98270654  6028
STARLINK-1147,45095,53.0405,0.0007308,15.92599696,290.1342439642913,299.88771705260206,1 45095U 20006BD  25266.25003472  .00359751  60659-4  10329-2 0  9992,2 45095  53.0405 227.7764 0007308  31.7310  34.6006 15.92599696  6017
STARLINK-1152,45096,53.0459,0.0005792,15.20755994,499.57311712341743,507.54487376453926,1 45096U 20006BE  25266.25622512  .00016865  00000+0  76901-3 0  9999,2 45096  53.0459 264.8129 0005792  49.2944 310.8554 15.20755994311973
STARLINK-1184,45098,53.0538,0.0001224,15.0640046,546.3624856139604,548.0578105958166,1 45098U 20006BG  25266.18821825 -.00000798  00000+0 -34669-4 0  9997,2 45098  53.0538 278.5610 0001224  76.9024 283.2101 15.06400460311770
STARLINK-1193,45100,53.0517,0.0001523,15.06402117,546.1503400485726,548.2597992429874,1 45100U 20006BJ  25266.18452960  .00001366  00000+0  11058-3 0  9997,2 45100  53.0517 278.5754 0001523  93.8133 266.3030 15.06402117311775
STARLINK-1143,45179,53.0552,0.000372,15.33852656,461.78514774255655,466.87594359653576,1 45179U 20012B   25266.09987695  .00143752  00000+0  42573-2 0  9999,2 45179  53.0552  51.0577 0003720 188.3024 171.7916 15.33852656309975
STARLINK-1201,45182,53.0335,0.0006899,16.18228995,219.80964373712686,228.91977559612587,1 45182U 20012E   25266.27285065  .01517351  20193-2  90779-3 0  9996,2 45182  53.0335 357.5943 0006899 357.7094   2.3910 16.18228995310576
STARLINK-1202,45183,53.0561,0.0001359,15.06396105,546.2823390866679,548.1646520693666,1 45183U 20012F   25266.18085659 -.00000288  00000+0 -44668-6 0  9992,2 45183  53.0561  78.5976 0001359  93.5888 266.5257 15.06396105309599
STARLINK-1216,45185,53.0539,0.0001282,15.06406794,546.3029083693764,548.0785624007294,1 45185U 20012H   25266.17348021  .00001833  00000+0  14191-3 0  9998,2 45185  53.0539  78.6271 0001282  90.2482 269.8654 15.06406794309531
STARLINK-1225,45187,53.0547,0.0001326,15.06397255,546.3016686463479,548.1382733150513,1 45187U 20012K   25265.79383437  .00002323  00000+0  17477-3 0  9992,2 45187  53.0547  80.3326 0001326  93.7058 266.4083 15.06397255309528
STARLINK-1230,45189,53.0557,0.0001285,15.06395776,546.3345949669074,548.114412873414,1 45189U 20012M   25265.79751817  .00000001  00000+0  18975-4 0  9991,2 45189  53.0557  80.3167 0001285  92.8578 267.2559 15.06395776306750
STARLINK-1234,45190,53.057,0.0001409,15.06405103,546.2201386142451,548.1716974305446,1 45190U 20012N   25266.08132560  .00001750  00000+0  13634-3 0  9992,2 45190  53.0570  39.0414 0001409  89.2725 270.8425 15.06405103310039
STARLINK-1240,45194,53.0393,0.0004394,16.06578965,253.32959237887098,259.1598870517337,1 45194U 20012S   25266.19408017  .00834294  37484-3  10785-2 0  9991,2 45194  53.0393  20.7421 0004394   1.3728 358.7316 16.06578965310296
STARLINK-1244,45196,53.0334,0.0006585,16.13775436,232.1507317667838,240.86221722269238,1 45196U 20012U   25266.23231175  .01181045  95112-3  95609-3 0  9998,2 45196  53.0334  19.6389 0006585 344.2995  15.7835 16.13775436310467
STARLINK-1269,45197,53.0543,0.0001423,15.0639411,546.2441303301785,548.2150896673847,1 45197U 20012V   25265.80856906  .00005917  00000+0  41584-3 0  9999,2 45197  53.0543  80.2690 0001423  85.3485 274.7667 15.06394110309502
STARLINK-1154,45198,53.055,0.0001342,15.06402765,546.2737029852506,548.1324642636955,1 45198U 20012W   25266.13108713  .00001854  00000+0  14333-3 0  9991,2 45198  53.0550  58.8172 0001342  85.9108 274.2035 15.06402765309808
STARLINK-1199,45201,53.0555,0.0001298,15.0639902,546.3156508660777,548.1134721314429,1 45201U 20012Z   25266.14214210  .00001056  00000+0  89750-4 0  9997,2 45201  53.0555  58.7690 0001298  89.8976 270.2162 15.06399020309860
STARLINK-1206,45204,53.0345,0.0008624,16.19971614,213.93903074173068,225.31885744210012,1 45204U 20012AC  25266.22487502  .01734000  11824-4  86966-3 0  9994,2 45204  53.0345   0.9062 0008624 318.2530  41.7849 16.19971614310693
STARLINK-1208,45205,53.0405,0.0002578,16.00177782,272.2110515164013,275.6408551751456,1 45205U 20012AD  25266.25003472  .00563397  15117-3  10681-2 0  9994,2 45205  53.0405   2.7172 0002578   5.4260 189.1921 16.00177782  6076
STARLINK-1209,45206,53.0551,0.0001361,15.06412493,546.2307342296117,548.115803684821,1 45206U 20012AE  25266.08500245  .00004019  00000+0  28844-3 0  9999,2 45206  53.0551  39.0264 0001361  96.8688 263.2456 15.06412493309182
STARLINK-1210,45207,53.0294,0.001126,15.47008323,417.82252079958107,433.1442739344502,1 45207U 20012AF  25265.60070360  .00159788  00000+0  30517-2 0  9990,2 45207  53.0294  13.6429 0011260 264.5670  95.4052 15.47008323310459
STARLINK-1231,45212,53.0532,0.0002978,15.09049575,537.0429221335098,541.1628302037561,1 45212U 20012AL  25266.13534011  .00055533  00000+0  34596-2 0  9997,2 45212  53.0532  58.3002 0002978 181.9085 178.1894 15.09049575309825
STARLINK-1271,45217,53.0565,0.0001398,15.0640657,546.2232609943321,548.1595828210975,1 45217U 20012AR  25266.12740496  .00001552  00000+0  12303-3 0  9992,2 45217  53.0565  58.8343 0001398  93.3837 266.7312 15.06406570309867
STARLINK-1191,45222,53.0556,0.0001463,15.06419841,546.1375792006929,548.1639183959915,1 45222U 20012AW  25265.67217303  .00004264  00000+0  30480-3 0  9992,2 45222  53.0556  40.8770 0001463  93.5456 266.5701 15.06419841310070
STARLINK-1212,45223,53.0568,0.0001423,15.06403623,546.2149784676376,548.1859295070435,1 45223U 20012AX  25266.08877525  .00001196  00000+0  99185-4 0  9996,2 45223  53.0568  39.6629 0001423  88.9218 271.1934 15.06403623310131
STARLINK-1215,45225,53.0567,8.06e-05,15.06412705,546.6144392614997,547.7307991721163,1 45225U 20012AZ  25266.11080656  .00002967  00000+0  21790-3 0  9996,2 45225  53.0567  38.9082 0000806  81.5100 278.5980 15.06412705310098
STARLINK-1217,45226,53.0465,0.0001165,15.89307692,303.44423359773464,305.00122341447695,1 45226U 20012BA  25266.25003472  .00329862  00000+0  10749-2 0  9990,2 45226  53.0465 348.0400 0001165 267.0235 252.2873 15.89307692  5993
